CCSDS_OMM_VERS = 2.0
CREATION_DATE  = 
ORIGINATOR     = 

OBJECT_NAME    = UNKNOWN
OBJECT_ID      = 
CENTER_NAME    = EARTH
REF_FRAME      = TEME
TIME_SYSTEM    = UTC
MEAN_ELEMENT_THEORY = SGP/SGP4

EPOCH          = 2026-03-28T14:29:27.000672
MEAN_MOTION    = 12.16571516
ECCENTRICITY   = .01553898
INCLINATION    = 102.6942
RA_OF_ASC_NODE = 55.8077
ARG_OF_PERICENTER = 20.5084
MEAN_ANOMALY   = 340.2114

EPHEMERIS_TYPE = 0
CLASSIFICATION_TYPE = U
NORAD_CAT_ID   = 270013
ELEMENT_SET_NO = 999
REV_AT_EPOCH   = 28141
BSTAR          = .87264655E-3
MEAN_MOTION_DOT = .45E-6
MEAN_MOTION_DDOT = 0

CCSDS_OMM_VERS = 2.0
CREATION_DATE  = 
ORIGINATOR     = 

OBJECT_NAME    = UNKNOWN
OBJECT_ID      = 
CENTER_NAME    = EARTH
REF_FRAME      = TEME
TIME_SYSTEM    = UTC
MEAN_ELEMENT_THEORY = SGP/SGP4

EPOCH          = 2026-03-23T16:47:35.045088
MEAN_MOTION    = 12.55080307
ECCENTRICITY   = .00641796
INCLINATION    = 101.8619
RA_OF_ASC_NODE = 67.4689
ARG_OF_PERICENTER = 204.3908
MEAN_ANOMALY   = 155.4123

EPHEMERIS_TYPE = 0
CLASSIFICATION_TYPE = U
NORAD_CAT_ID   = 270014
ELEMENT_SET_NO = 999
REV_AT_EPOCH   = 28959
BSTAR          = .73628198E-3
MEAN_MOTION_DOT = .75E-6
MEAN_MOTION_DDOT = 0

CCSDS_OMM_VERS = 2.0
CREATION_DATE  = 
ORIGINATOR     = 

OBJECT_NAME    = UNKNOWN
OBJECT_ID      = 
CENTER_NAME    = EARTH
REF_FRAME      = TEME
TIME_SYSTEM    = UTC
MEAN_ELEMENT_THEORY = SGP/SGP4

EPOCH          = 2026-04-01T23:57:25.626528
MEAN_MOTION    = 13.04784652
ECCENTRICITY   = .00320384
INCLINATION    = 90.1592
RA_OF_ASC_NODE = 356.6228
ARG_OF_PERICENTER = 17.2666
MEAN_ANOMALY   = 342.9541

EPHEMERIS_TYPE = 0
CLASSIFICATION_TYPE = U
NORAD_CAT_ID   = 270015
ELEMENT_SET_NO = 999
REV_AT_EPOCH   = 30213
BSTAR          = -.8382389E-4
MEAN_MOTION_DOT = -.19E-6
MEAN_MOTION_DDOT = 0

CCSDS_OMM_VERS = 2.0
CREATION_DATE  = 
ORIGINATOR     = 

OBJECT_NAME    = UNKNOWN
OBJECT_ID      = 
CENTER_NAME    = EARTH
REF_FRAME      = TEME
TIME_SYSTEM    = UTC
MEAN_ELEMENT_THEORY = SGP/SGP4

EPOCH          = 2026-03-30T11:40:17.938272
MEAN_MOTION    = 13.82075904
ECCENTRICITY   = .02268399
INCLINATION    = 98.7049
RA_OF_ASC_NODE = 175.3192
ARG_OF_PERICENTER = 259.7211
MEAN_ANOMALY   = 97.8299

EPHEMERIS_TYPE = 0
CLASSIFICATION_TYPE = U
NORAD_CAT_ID   = 270016
ELEMENT_SET_NO = 999
REV_AT_EPOCH   = 31881
BSTAR          = .13203507E-2
MEAN_MOTION_DOT = .1687E-4
MEAN_MOTION_DDOT = 0

CCSDS_OMM_VERS = 2.0
CREATION_DATE  = 
ORIGINATOR     = 

OBJECT_NAME    = UNKNOWN
OBJECT_ID      = 
CENTER_NAME    = EARTH
REF_FRAME      = TEME
TIME_SYSTEM    = UTC
MEAN_ELEMENT_THEORY = SGP/SGP4

EPOCH          = 2026-03-16T14:08:35.249568
MEAN_MOTION    = 13.02403083
ECCENTRICITY   = .00349177
INCLINATION    = 90.2858
RA_OF_ASC_NODE = 21.9142
ARG_OF_PERICENTER = 138.2496
MEAN_ANOMALY   = 222.1301

EPHEMERIS_TYPE = 0
CLASSIFICATION_TYPE = U
NORAD_CAT_ID   = 270017
ELEMENT_SET_NO = 999
REV_AT_EPOCH   = 29937
BSTAR          = .1346293E-2
MEAN_MOTION_DOT = .428E-5
MEAN_MOTION_DDOT = 0

CCSDS_OMM_VERS = 2.0
CREATION_DATE  = 
ORIGINATOR     = 

OBJECT_NAME    = UNKNOWN
OBJECT_ID      = 
CENTER_NAME    = EARTH
REF_FRAME      = TEME
TIME_SYSTEM    = UTC
MEAN_ELEMENT_THEORY = SGP/SGP4

EPOCH          = 2026-04-01T01:42:02.629728
MEAN_MOTION    = 14.08987584
ECCENTRICITY   = .00638491
INCLINATION    = 99.8075
RA_OF_ASC_NODE = 208.4665
ARG_OF_PERICENTER = 192.0211
MEAN_ANOMALY   = 167.9435

EPHEMERIS_TYPE = 0
CLASSIFICATION_TYPE = U
NORAD_CAT_ID   = 270018
ELEMENT_SET_NO = 999
REV_AT_EPOCH   = 32378
BSTAR          = .37064318E-2
MEAN_MOTION_DOT = .6493E-4
MEAN_MOTION_DDOT = 0

CCSDS_OMM_VERS = 2.0
CREATION_DATE  = 
ORIGINATOR     = 

OBJECT_NAME    = UNKNOWN
OBJECT_ID      = 
CENTER_NAME    = EARTH
REF_FRAME      = TEME
TIME_SYSTEM    = UTC
MEAN_ELEMENT_THEORY = SGP/SGP4

EPOCH          = 2026-04-01T11:53:44.057184
MEAN_MOTION    = 12.95867066
ECCENTRICITY   = .00534719
INCLINATION    = 90.2554
RA_OF_ASC_NODE = 8.9046
ARG_OF_PERICENTER = 22.2106
MEAN_ANOMALY   = 338.1313

EPHEMERIS_TYPE = 0
CLASSIFICATION_TYPE = U
NORAD_CAT_ID   = 270019
ELEMENT_SET_NO = 999
REV_AT_EPOCH   = 29999
BSTAR          = .37451868E-3
MEAN_MOTION_DOT = .114E-5
MEAN_MOTION_DDOT = 0

CCSDS_OMM_VERS = 2.0
CREATION_DATE  = 
ORIGINATOR     = 

OBJECT_NAME    = UNKNOWN
OBJECT_ID      = 
CENTER_NAME    = EARTH
REF_FRAME      = TEME
TIME_SYSTEM    = UTC
MEAN_ELEMENT_THEORY = SGP/SGP4

EPOCH          = 2026-04-01T16:02:45.407904
MEAN_MOTION    = 13.96591724
ECCENTRICITY   = .00169255
INCLINATION    = 82.5314
RA_OF_ASC_NODE = 76.4680
ARG_OF_PERICENTER = 214.1351
MEAN_ANOMALY   = 145.8729

EPHEMERIS_TYPE = 0
CLASSIFICATION_TYPE = U
NORAD_CAT_ID   = 270020
ELEMENT_SET_NO = 999
REV_AT_EPOCH   = 32230
BSTAR          = .1902524E-2
MEAN_MOTION_DOT = .265E-4
MEAN_MOTION_DDOT = 0

CCSDS_OMM_VERS = 2.0
CREATION_DATE  = 
ORIGINATOR     = 

OBJECT_NAME    = UNKNOWN
OBJECT_ID      = 
CENTER_NAME    = EARTH
REF_FRAME      = TEME
TIME_SYSTEM    = UTC
MEAN_ELEMENT_THEORY = SGP/SGP4

EPOCH          = 2026-03-30T18:49:46.271712
MEAN_MOTION    = 12.65905844
ECCENTRICITY   = .00616608
INCLINATION    = 82.7130
RA_OF_ASC_NODE = 116.1768
ARG_OF_PERICENTER = 187.1819
MEAN_ANOMALY   = 172.8397

EPHEMERIS_TYPE = 0
CLASSIFICATION_TYPE = U
NORAD_CAT_ID   = 270021
ELEMENT_SET_NO = 999
REV_AT_EPOCH   = 29273
BSTAR          = .18442822E-2
MEAN_MOTION_DOT = .36E-5
MEAN_MOTION_DDOT = 0

CCSDS_OMM_VERS = 2.0
CREATION_DATE  = 
ORIGINATOR     = 

OBJECT_NAME    = UNKNOWN
OBJECT_ID      = 
CENTER_NAME    = EARTH
REF_FRAME      = TEME
TIME_SYSTEM    = UTC
MEAN_ELEMENT_THEORY = SGP/SGP4

EPOCH          = 2026-03-31T06:40:00.708672
MEAN_MOTION    = 12.66012159
ECCENTRICITY   = .05580523
INCLINATION    = 100.1164
RA_OF_ASC_NODE = 294.2114
ARG_OF_PERICENTER = 207.3422
MEAN_ANOMALY   = 149.7245

EPHEMERIS_TYPE = 0
CLASSIFICATION_TYPE = U
NORAD_CAT_ID   = 270022
ELEMENT_SET_NO = 999
REV_AT_EPOCH   = 28946
BSTAR          = .13641607E-1
MEAN_MOTION_DOT = .47E-4
MEAN_MOTION_DDOT = 0

CCSDS_OMM_VERS = 2.0
CREATION_DATE  = 
ORIGINATOR     = 

OBJECT_NAME    = UNKNOWN
OBJECT_ID      = 
CENTER_NAME    = EARTH
REF_FRAME      = TEME
TIME_SYSTEM    = UTC
MEAN_ELEMENT_THEORY = SGP/SGP4

EPOCH          = 2026-03-31T18:13:59.715552
MEAN_MOTION    = 12.45750943
ECCENTRICITY   = .00261255
INCLINATION    = 73.6362
RA_OF_ASC_NODE = 111.2528
ARG_OF_PERICENTER = 261.0080
MEAN_ANOMALY   = 98.8009

EPHEMERIS_TYPE = 0
CLASSIFICATION_TYPE = U
NORAD_CAT_ID   = 270023
ELEMENT_SET_NO = 999
REV_AT_EPOCH   = 28829
BSTAR          = .2470032E-2
MEAN_MOTION_DOT = .338E-5
MEAN_MOTION_DDOT = 0

CCSDS_OMM_VERS = 2.0
CREATION_DATE  = 
ORIGINATOR     = 

OBJECT_NAME    = UNKNOWN
OBJECT_ID      = 
CENTER_NAME    = EARTH
REF_FRAME      = TEME
TIME_SYSTEM    = UTC
MEAN_ELEMENT_THEORY = SGP/SGP4

EPOCH          = 2026-03-28T12:12:28.541088
MEAN_MOTION    = 12.62481009
ECCENTRICITY   = .00006338
INCLINATION    = 51.9793
RA_OF_ASC_NODE = 163.8891
ARG_OF_PERICENTER = 278.8359
MEAN_ANOMALY   = 81.2436

EPHEMERIS_TYPE = 0
CLASSIFICATION_TYPE = U
NORAD_CAT_ID   = 270024
ELEMENT_SET_NO = 999
REV_AT_EPOCH   = 29227
BSTAR          = .42094662E-4
MEAN_MOTION_DOT = -.96E-6
MEAN_MOTION_DDOT = 0

CCSDS_OMM_VERS = 2.0
CREATION_DATE  = 
ORIGINATOR     = 

OBJECT_NAME    = UNKNOWN
OBJECT_ID      = 
CENTER_NAME    = EARTH
REF_FRAME      = TEME
TIME_SYSTEM    = UTC
MEAN_ELEMENT_THEORY = SGP/SGP4

EPOCH          = 2026-03-31T14:44:39.922944
MEAN_MOTION    = 14.22543860
ECCENTRICITY   = .00756134
INCLINATION    = 98.6040
RA_OF_ASC_NODE = 52.3417
ARG_OF_PERICENTER = 117.5145
MEAN_ANOMALY   = 243.3744

EPHEMERIS_TYPE = 0
CLASSIFICATION_TYPE = U
NORAD_CAT_ID   = 270025
ELEMENT_SET_NO = 999
REV_AT_EPOCH   = 32822
BSTAR          = .93575674E-3
MEAN_MOTION_DOT = .2109E-4
MEAN_MOTION_DDOT = 0

CCSDS_OMM_VERS = 2.0
CREATION_DATE  = 
ORIGINATOR     = 

OBJECT_NAME    = UNKNOWN
OBJECT_ID      = 
CENTER_NAME    = EARTH
REF_FRAME      = TEME
TIME_SYSTEM    = UTC
MEAN_ELEMENT_THEORY = SGP/SGP4

EPOCH          = 2026-04-01T01:44:23.911872
MEAN_MOTION    = 11.92276688
ECCENTRICITY   = .03938575
INCLINATION    = 103.3415
RA_OF_ASC_NODE = 211.4250
ARG_OF_PERICENTER = 132.6968
MEAN_ANOMALY   = 230.7943

EPHEMERIS_TYPE = 0
CLASSIFICATION_TYPE = U
NORAD_CAT_ID   = 270026
ELEMENT_SET_NO = 999
REV_AT_EPOCH   = 27587
BSTAR          = .63371193E-2
MEAN_MOTION_DOT = .535E-5
MEAN_MOTION_DDOT = 0

CCSDS_OMM_VERS = 2.0
CREATION_DATE  = 
ORIGINATOR     = 

OBJECT_NAME    = UNKNOWN
OBJECT_ID      = 
CENTER_NAME    = EARTH
REF_FRAME      = TEME
TIME_SYSTEM    = UTC
MEAN_ELEMENT_THEORY = SGP/SGP4

EPOCH          = 2026-03-28T21:38:33.328032
MEAN_MOTION    = 11.80588551
ECCENTRICITY   = .05166737
INCLINATION    = 100.9491
RA_OF_ASC_NODE = 316.4879
ARG_OF_PERICENTER = 320.8814
MEAN_ANOMALY   = 35.5911

EPHEMERIS_TYPE = 0
CLASSIFICATION_TYPE = U
NORAD_CAT_ID   = 270027
ELEMENT_SET_NO = 999
REV_AT_EPOCH   = 27248
BSTAR          = .1361524E-1
MEAN_MOTION_DOT = .1209E-4
MEAN_MOTION_DDOT = 0

CCSDS_OMM_VERS = 2.0
CREATION_DATE  = 
ORIGINATOR     = 

OBJECT_NAME    = UNKNOWN
OBJECT_ID      = 
CENTER_NAME    = EARTH
REF_FRAME      = TEME
TIME_SYSTEM    = UTC
MEAN_ELEMENT_THEORY = SGP/SGP4

EPOCH          = 2026-04-01T15:52:57.527616
MEAN_MOTION    = 13.96698765
ECCENTRICITY   = .00095185
INCLINATION    = 82.5207
RA_OF_ASC_NODE = 69.9083
ARG_OF_PERICENTER = 100.5387
MEAN_ANOMALY   = 259.6853

EPHEMERIS_TYPE = 0
CLASSIFICATION_TYPE = U
NORAD_CAT_ID   = 270029
ELEMENT_SET_NO = 999
REV_AT_EPOCH   = 32222
BSTAR          = .1967908E-2
MEAN_MOTION_DOT = .2744E-4
MEAN_MOTION_DDOT = 0

